[{"OBJECT_NAME":"STARLINK-36519","OBJECT_ID":"2026-008E","EPOCH":"2026-03-09T09:11:08.446560","MEAN_MOTION":15.27609513,"ECCENTRICITY":0.0001292,"INCLINATION":43.0015,"RA_OF_ASC_NODE":207.0985,"ARG_OF_PERICENTER":222.2698,"MEAN_ANOMALY":137.8054,"EPHEMERIS_TYPE":0,"CLASSIFICATION_TYPE":"U","NORAD_CAT_ID":67449,"ELEMENT_SET_NO":999,"REV_AT_EPOCH":952,"BSTAR":0.0011093725,"MEAN_MOTION_DOT":0.00030419,"MEAN_MOTION_DDOT":0},{"OBJECT_NAME":"CZ-6A DEB","OBJECT_ID":"2022-151NB","EPOCH":"2026-03-09T18:26:17.609568","MEAN_MOTION":15.22372787,"ECCENTRICITY":0.00267955,"INCLINATION":98.6489,"RA_OF_ASC_NODE":154.0342,"ARG_OF_PERICENTER":180.4296,"MEAN_ANOMALY":179.6918,"EPHEMERIS_TYPE":0,"CLASSIFICATION_TYPE":"U","NORAD_CAT_ID":54601,"ELEMENT_SET_NO":999,"REV_AT_EPOCH":17694,"BSTAR":0.011449911,"MEAN_MOTION_DOT":0.00276508,"MEAN_MOTION_DDOT":0}]
